P/2012 F2 (PANSTARRS),e,14.6978,226.9698,33.3006,6.338196,0.0617669,0.54064365,228.5631,05/24.0/2023,2000,g 12.0,4.0
# From MPEC 2022-ED3
P/2012 G1 (PANSTARRS),e,12.1702,283.2661,266.1130,4.164949,0.1159550,0.32914486,112.0360,05/24.0/2023,2000,g 15.0,4.0
# From MPC 80898
P/2012 K3 (Gibbs),e,13.1867,125.8205,172.2350,3.629084,0.1425635,0.42229170,196.2350,05/24.0/2023,2000,g 15.0,4.0
# From MPC 88326
P/2012 NJ (La Sagra),e,84.5261,315.6135,338.3874,8.466492,0.0400082,0.84667921,159.8148,05/24.0/2023,2000,g 14.5,4.0
# From MPC 81470
P/2012 O1 (McNaught),e,7.4265,91.9171,238.3437,3.541958,0.1478560,0.59411815,228.1526,05/24.0/2023,2000,g 17.5,4.0
# From MPC 80899
P/2012 O2 (McNaught),e,24.4630,120.6808,183.4756,3.626740,0.1427018,0.53179380,211.1300,05/24.0/2023,2000,g 17.0,4.0
# From MPC 82320
P/2012 T2 (PANSTARRS),e,12.5692,73.7176,310.8729,5.726221,0.0719286,0.16244645,264.0797,05/24.0/2023,2000,g 10.0,4.0
# From MPC 80900
P/2012 T3 (PANSTARRS),e,9.5557,114.3559,195.5462,6.151830,0.0645948,0.61645569,260.6534,05/24.0/2023,2000,g 15.0,4.0
# From MPC 82720
P/2012 U2 (PANSTARRS),e,10.7594,185.3233,228.2810,7.130469,0.0517639,0.50022632,198.7382,05/24.0/2023,2000,g 12.5,4.0
# From MPC 84024
P/2012 US27 (Siding Spring),e,39.3703,49.2093,0.8426,5.163768,0.0839951,0.64833684,316.6403,05/24.0/2023,2000,g 13.5,4.0
# From MPC 82721
P/2012 WA34 (Lemmon-PANSTARRS),e,6.0826,93.5531,356.6437,4.678232,0.0974050,0.34350524,355.5328,05/24.0/2023,2000,g 13.5,4.0
# From MPC 82721
P/2013 AL76 (Catalina),e,144.8817,146.0284,27.0407,6.500783,0.0594642,0.68576482,227.5760,05/24.0/2023,2000,g 16.0,4.0
# From MPC 91612
P/2013 G1 (Kowalski),e,5.4572,221.2998,51.5435,6.899254,0.0543877,0.51082367,187.9083,05/24.0/2023,2000,g 11.0,4.0
# From MPC 84025
P/2013 G4 (PANSTARRS),e,5.9161,339.6288,214.6079,4.437315,0.1054445,0.40911462,35.7253,05/24.0/2023,2000,g 15.0,4.0
# From MPC 91613
P/2013 J2 (McNaught),e,15.5054,289.3216,37.8966,6.223705,0.0634791,0.65710554,225.5144,05/24.0/2023,2000,g 13.0,4.0
# From MPC 86229
P/2013 N3 (PANSTARRS),e,2.1731,17.4852,323.9790,7.396865,0.0489928,0.59274211,165.6799,05/24.0/2023,2000,g 13.0,4.0
# From MPC 85834
P/2013 N5 (PANSTARRS),e,23.4596,187.1551,176.9556,6.797087,0.0556186,0.73244055,200.5689,05/24.0/2023,2000,g 17.0,4.0
# From MPC 85834
P/2013 P1 (PANSTARRS),e,18.7198,160.6133,138.2512,8.584591,0.0391854,0.60415174,146.4949,05/24.0/2023,2000,g 12.0,4.0
# From MPEC 2022-V95
P/2013 R3 (Catalina-PANSTARRS),e,0.8650,341.9664,11.3278,3.031529,0.1867288,0.27560666,303.7114,05/24.0/2023,2000,g 14.0,4.0
# From unp
P/2013 R3-A (Catalina-PANSTARRS),e,0.8642,341.9213,11.4068,3.031284,0.1867515,0.27553737,303.7742,05/24.0/2023,2000,g  9.0,4.0
# From MPEC 2015-M77
P/2013 R3-B (Catalina-PANSTARRS),e,0.8654,341.9772,11.3415,3.031504,0.1867312,0.27558267,303.7062,05/24.0/2023,2000,g  9.0,4.0
# From MPC 85835
P/2013 T1 (PANSTARRS),e,24.3011,10.0797,346.1818,5.856221,0.0695469,0.62422567,248.6061,05/24.0/2023,2000,g 16.5,4.0
# From MPC 86643
P/2013 T2 (Schwartz),e,9.4561,0.8029,345.5911,3.492203,0.1510271,0.50091502,191.8100,05/24.0/2023,2000,g 16.0,4.0
# From MPC 91613
P/2013 W1 (PANSTARRS),e,4.6973,117.8380,1.2207,3.487045,0.1513623,0.59304858,149.1979,05/24.0/2023,2000,g 17.5,4.0
# From MPC101095
P/2013 YG46 (Spacewatch),e,7.8577,48.8344,242.6182,3.274544,0.1663328,0.45474227,22.8997,05/24.0/2023,2000,g 10.0,4.0
# From MPC 89728
P/2014 A2 (Hill),e,24.5512,106.6358,356.1459,5.926708,0.0683099,0.64588820,239.9708,05/24.0/2023,2000,g 15.0,4.0
# From MPC 92981
P/2014 A3 (PANSTARRS),e,13.7176,229.9788,214.1725,4.606999,0.0996728,0.24641505,3.1303,05/24.0/2023,2000,g 12.0,4.0
# From MPC102095
P/2014 C1 (TOTAS),e,2.6932,167.8185,24.0065,3.030425,0.1868309,0.45168767,279.6872,05/24.0/2023,2000,g 15.5,4.0
# From MPEC 2022-WD2
C/2014 F3 (Sheppard-Trujillo),e,6.5297,326.2229,4.7127,14.50942,0.0178332,0.60627870,12.9281,05/24.0/2023,2000,g  6.0,4.0
# From MPC 98560
P/2014 L2 (NEOWISE),e,5.1974,149.3444,182.7275,6.306160,0.0622381,0.64765291,200.9108,05/24.0/2023,2000,g 12.0,4.0
# From MPC 90769
P/2014 L3 (Hill),e,6.2639,115.5001,178.7090,8.179636,0.0421311,0.77236198,136.9549,05/24.0/2023,2000,g 16.0,4.0
# From MPC 91614
P/2014 M4 (PANSTARRS),e,3.3449,263.1727,148.0696,5.867337,0.0693494,0.59581543,212.6429,05/24.0/2023,2000,g 15.0,4.0
# From MPEC 2022-K19
P/2014 MG4 (Spacewatch-PANSTARRS),e,9.3656,311.7195,299.0069,5.013885,0.0877895,0.25884444,318.5337,05/24.0/2023,2000,g  9.5,4.0
# From MPC 98560
P/2014 O3 (PANSTARRS),e,7.7940,87.6369,204.7946,7.578985,0.0472376,0.38398389,157.0493,05/24.0/2023,2000,g 10.5,4.0
# From MPEC 2023-J29
C/2014 OG392 (PANSTARRS),e,9.0329,145.8091,254.5163,12.25662,0.0229693,0.18643984,12.1184,05/24.0/2023,2000,g  6.0,4.0
# From MPEC 2023-K66
P/2014 OL465 (PANSTARRS),e,21.6635,309.5917,267.6977,4.688682,0.0970796,0.28071113,8.2355,05/24.0/2023,2000,g 10.5,4.0
# From MPC 91616
P/2014 U4 (PANSTARRS),e,6.4288,11.8878,347.8568,3.509513,0.1499111,0.46472102,124.3313,05/24.0/2023,2000,g 18.0,4.0
# From MPEC 2023-J29
C/2014 UN271 (Bernardinelli-Bernstein),h,01/20.8425/2031,95.4310,189.9002,326.2027,1.001678,10.949576,2000,2.5,3.2
# From MPC 95211
P/2014 V1 (PANSTARRS),e,22.5214,166.1964,177.6685,5.479495,0.0768410,0.53429468,233.4352,05/24.0/2023,2000,g 14.0,4.0
# From MPC 93586
P/2014 W1 (PANSTARRS),e,8.8359,246.2127,152.0981,4.470110,0.1042862,0.38972593,338.2057,05/24.0/2023,2000,g 15.5,4.0
# From MPC105542
P/2014 W4 (PANSTARRS),e,15.2835,33.3899,67.5825,6.586607,0.0583058,0.35372361,157.4402,05/24.0/2023,2000,g 11.0,4.0
# From MPC 94281
P/2014 X1 (Elenin),e,26.0539,61.5747,33.8620,6.203750,0.0637856,0.70987245,195.4456,05/24.0/2023,2000,g 15.0,4.0
# From MPC 92275
P/2015 A3 (PANSTARRS),e,172.5437,277.3606,249.5076,7.816442,0.0451014,0.85030389,136.0766,05/24.0/2023,2000,g 20.0,4.0
# From MPC 99270
P/2015 B1 (PANSTARRS),e,18.0593,352.9048,188.8431,9.487826,0.0337252,0.36635102,94.9306,05/24.0/2023,2000,g  8.5,4.0
# From MPC109141
P/2015 B4 (Lemmon-PANSTARRS),e,1.7644,266.0783,227.2074,8.513985,0.0396739,0.56089932,120.2930,05/24.0/2023,2000,g 11.0,4.0
# From MPC101096
P/2015 C1 (TOTAS-Gibbs),e,13.9271,348.7887,178.0692,6.571939,0.0585011,0.56152825,172.7856,05/24.0/2023,2000,g 12.5,4.0
# From MPC109141
P/2015 D5 (Kowalski),e,20.5402,74.0771,39.6317,8.951188,0.0368030,0.49032564,122.8759,05/24.0/2023,2000,g  9.0,4.0
# From MPC 96866
P/2015 D6 (Lemmon-PANSTARRS),e,20.2104,45.8211,124.9828,7.133602,0.0517298,0.36156704,149.4743,05/24.0/2023,2000,g 10.5,4.0
# From MPEC 2021-P47
P/2015 HG16 (PANSTARRS),e,18.9286,57.1882,47.1884,4.796377,0.0938284,0.35166229,311.9171,05/24.0/2023,2000,g 12.5,4.0
# From MPC 95213
P/2015 K5 (PANSTARRS),e,39.9411,134.2338,106.2859,6.726897,0.0564913,0.55168914,164.7207,05/24.0/2023,2000,g 13.5,4.0
# From MPC107684
P/2015 M2 (PANSTARRS),e,3.9689,86.5809,226.0435,7.246042,0.0505304,0.17936124,142.0138,05/24.0/2023,2000,g  8.5,4.0
# From MPC 99819
P/2015 P4 (PANSTARRS),e,8.7182,104.6573,280.7103,6.046720,0.0662864,0.58575835,177.4157,05/24.0/2023,2000,g 14.0,4.0
# From MPEC 2022-K19
P/2015 PD229 (Cameron-ISON),e,2.0242,342.6708,352.7250,7.195580,0.0510629,0.32717672,144.8462,05/24.0/2023,2000,g 11.5,2.0
# From MPC 96867
P/2015 Q2 (Pimentel),e,146.5549,228.5477,244.6634,7.353292,0.0494290,0.75083445,139.1252,05/24.0/2023,2000,g 15.5,4.0
# From MPC 98562
P/2015 R1 (PANSTARRS),e,22.7009,48.3165,300.6013,5.881044,0.0691071,0.63410462,199.2816,05/24.0/2023,2000,g 14.0,4.0
# From MPC 95734
P/2015 R2 (PANSTARRS),e,15.4837,168.5936,149.8654,4.484852,0.1037724,0.45264469,300.6872,05/24.0/2023,2000,g 14.5,4.0
# From MPC 96280
P/2015 T3 (PANSTARRS),e,13.0937,120.5019,178.6330,4.326181,0.1095335,0.50818108,359.9227,12/21.0/2014,2000,g 14.0,4.0
# From MPC102953
P/2015 TO19 (Lemmon-PANSTARRS),e,6.5018,321.6191,89.2255,4.550945,0.1015200,0.35951467,267.2010,05/24.0/2023,2000,g 14.0,4.0
# From MPC110080
P/2015 TP200 (LINEAR),e,8.7797,7.0105,82.4409,7.263667,0.0503466,0.53652825,120.6984,05/24.0/2023,2000,g 11.0,4.0
# From MPC101098
P/2015 W2 (Catalina),e,11.6118,294.1144,117.5986,7.290774,0.0500661,0.63542884,139.5697,05/24.0/2023,2000,g 13.0,4.0
# From MPEC 2022-OB6
C/2015 XY1 (Lemmon),e,148.8520,281.5579,196.1407,11962,0.0000008,0.99933726,0.0000,04/25.2618/2018,2000,g  5.5,4.0
# From MPEC 2023-J29
P/2015 X3 (PANSTARRS),e,24.4131,77.2605,306.8552,5.003078,0.0880741,0.44007360,250.0900,05/24.0/2023,2000,g 15.0,4.0
# From MPC115881
P/2015 X6 (PANSTARRS),e,4.5653,106.9305,329.7932,2.751959,0.2158942,0.17332096,204.7952,05/24.0/2023,2000,g 16.0,4.0
# From MPC100282
P/2016 A2 (Christensen),e,26.4041,291.6182,141.2878,4.753550,0.0950992,0.27103254,276.0227,05/24.0/2023,2000,g 11.5,4.0
# From MPEC 2022-OB6
P/2016 A3 (PANSTARRS),e,8.5118,187.2097,340.8845,7.877445,0.0445786,0.38607850,98.9418,05/24.0/2023,2000,g 10.0,4.0
# From MPC102098
P/2016 A7 (PANSTARRS),e,16.6054,221.4985,352.4954,5.035493,0.0872250,0.56468313,231.3419,05/24.0/2023,2000,g 16.0,4.0
# From MPEC 2021-P47
P/2016 G1 (PANSTARRS),e,10.9711,204.0171,111.1486,2.583159,0.2373982,0.21054924,188.3495,05/24.0/2023,2000,g 14.0,4.0
# From MPEC 2017-D91
P/2016 J1-A (PANSTARRS),e,14.3299,199.8064,47.2090,3.174360,0.1742689,0.22770985,79.5717,05/24.0/2023,2000,g 16.5,4.0
# From MPEC 2017-A77
P/2016 J1-B (PANSTARRS),e,14.3327,199.8112,47.1007,3.173998,0.1742987,0.22755960,79.7228,05/24.0/2023,2000,g 17.0,4.0
# From MPEC 2022-ED3
C/2016 M1 (PANSTARRS),e,90.8422,92.2701,209.9302,21992,0.0000003,0.99989932,0.0000,08/10.3951/2018,2000,g  5.0,4.0
# From MPEC 2021-P47
C/2016 N6 (PANSTARRS),e,105.8693,298.8891,162.5741,945.8348,0.0000339,0.99718768,0.0000,07/17.3197/2018,2000,g  7.0,4.0
# From MPC102099
P/2016 P1 (PANSTARRS),e,24.3821,319.4382,270.6794,3.201256,0.1720773,0.28917399,122.4194,05/24.0/2023,2000,g 15.0,4.0
# From MPEC 2023-G31
C/2016 Q2 (PANSTARRS),h,05/12.3977/2021,109.3769,322.3166,84.5577,1.003111,7.081741,2000,6.0,4.0
# From MPEC 2023-J95
